[{"OBJECT_NAME":"STARLINK-1451","OBJECT_ID":"2020-035M","EPOCH":"2026-03-09T09:59:04.620480","MEAN_MOTION":15.10044289,"ECCENTRICITY":0.00017292,"INCLINATION":53.0538,"RA_OF_ASC_NODE":67.2968,"ARG_OF_PERICENTER":37.5648,"MEAN_ANOMALY":322.5463,"EPHEMERIS_TYPE":0,"CLASSIFICATION_TYPE":"U","NORAD_CAT_ID":45668,"ELEMENT_SET_NO":999,"REV_AT_EPOCH":31870,"BSTAR":0.0020089514,"MEAN_MOTION_DOT":0.00032913,"MEAN_MOTION_DDOT":0},{"OBJECT_NAME":"TIANQI-12","OBJECT_ID":"2021-039D","EPOCH":"2026-03-09T20:15:13.550976","MEAN_MOTION":15.10910107,"ECCENTRICITY":0.00035548,"INCLINATION":34.9981,"RA_OF_ASC_NODE":219.5618,"ARG_OF_PERICENTER":141.9564,"MEAN_ANOMALY":218.1398,"EPHEMERIS_TYPE":0,"CLASSIFICATION_TYPE":"U","NORAD_CAT_ID":48426,"ELEMENT_SET_NO":999,"REV_AT_EPOCH":26518,"BSTAR":0.00053797391,"MEAN_MOTION_DOT":9.139e-5,"MEAN_MOTION_DDOT":0}]
