STARLINK-1451           
1 45668U 20035M   26068.41602570  .00032913  00000+0  20090-2 0  9996
2 45668  53.0538  67.2968 0001729  37.5648 322.5463 15.10044289318703
TIANQI-12               
1 48426U 21039D   26068.84390683  .00009139  00000+0  53797-3 0  9997
2 48426  34.9981 219.5618 0003555 141.9564 218.1398 15.10910107265189
